[{"OBJECT_NAME":"STARLINK-30303","OBJECT_ID":"2023-124Q","EPOCH":"2026-03-09T16:42:02.719584","MEAN_MOTION":15.30193284,"ECCENTRICITY":0.00010787,"INCLINATION":53.162,"RA_OF_ASC_NODE":206.4498,"ARG_OF_PERICENTER":67.0734,"MEAN_ANOMALY":293.0381,"EPHEMERIS_TYPE":0,"CLASSIFICATION_TYPE":"U","NORAD_CAT_ID":57677,"ELEMENT_SET_NO":999,"REV_AT_EPOCH":14357,"BSTAR":1.8602145e-5,"MEAN_MOTION_DOT":1.92e-6,"MEAN_MOTION_DDOT":0},{"OBJECT_NAME":"OBJECT E","OBJECT_ID":"2024-092E","EPOCH":"2026-03-09T21:25:47.709120","MEAN_MOTION":15.32997986,"ECCENTRICITY":0.0008531,"INCLINATION":97.642,"RA_OF_ASC_NODE":198.2099,"ARG_OF_PERICENTER":142.2606,"MEAN_ANOMALY":217.9236,"EPHEMERIS_TYPE":0,"CLASSIFICATION_TYPE":"U","NORAD_CAT_ID":59777,"ELEMENT_SET_NO":999,"REV_AT_EPOCH":10051,"BSTAR":0.00078641119,"MEAN_MOTION_DOT":0.00025066,"MEAN_MOTION_DDOT":0}]
